2026-134H               
1 69545U 26134H   26183.23306883  .00005719  00000+0  35693-3 0  9998
2 69545  97.7023 253.4114 0014860 223.7789 136.2262 15.09814378  2567
STARLINK-37880          
1 69546U 26135A   26183.53509929  .00325897  00000+0  16282-2 0  9993
2 69546  97.2838 211.4192 0001578  68.7100 291.4336 15.80965642  2682
STARLINK-37881          
1 69547U 26135B   26183.53452899  .00258491  00000+0  13057-2 0  9999
2 69547  97.2826 211.4193 0001865  90.8586 269.2896 15.80898647  2688
STARLINK-37265          
1 69548U 26135C   26183.53385734  .00359996  00000+0  17926-2 0  9994
2 69548  97.2827 211.4197 0001465  78.8461 281.2972 15.80951560  2681
STARLINK-37871          
1 69549U 26135D   26183.53292390  .00276814  00000+0  13952-2 0  9992
2 69549  97.2828 211.4214 0001850  74.2982 285.8490 15.80899987  2688
STARLINK-37865          
1 69550U 26135E   26183.53147824  .00398376  00000+0  19722-2 0  9994
2 69550  97.2819 211.4228 0000824  73.1608 286.9751 15.80979369  2683
STARLINK-37862          
1 69551U 26135F   26183.52867833  .00374685  00000+0  18602-2 0  9996
2 69551  97.2830 211.4263 0001927  45.6993 314.4433 15.80978480  2689
STARLINK-37861          
1 69552U 26135G   26183.02035964  .00385368  00000+0  19230-2 0  9992
2 69552  97.2834 210.8947 0001282 122.8760 237.2632 15.80839098  2606
STARLINK-37859          
1 69553U 26135H   26183.71546242  .00243356  00000+0  12332-2 0  9991
2 69553  97.2829 211.6328 0001576  82.1113 278.0334 15.80868168  2713
STARLINK-37860          
1 69554U 26135J   26183.52583830  .00252019  00000+0  12727-2 0  9999
2 69554  97.2829 211.4312 0001193  77.7213 282.4189 15.80921425  2680
STARLINK-37858          
1 69555U 26135K   26183.66668980 -.00034072  00000+0 -17750-3 0  9996
2 69555  97.2831 211.5866 0001324  98.8664 354.2049 15.80856757  3802
STARLINK-37927          
1 69556U 26135L   26183.52350728  .00339015  00000+0  16906-2 0  9994
2 69556  97.2834 211.4338 0001345  66.3582 293.7827 15.80972690  2682
STARLINK-37929          
1 69557U 26135M   26183.52266962  .00344741  00000+0  17176-2 0  9993
2 69557  97.2836 211.4350 0000973  23.0790 337.0522 15.80978061  2688
STARLINK-37954          
1 69558U 26135N   26183.52145398  .00427322  00000+0  21079-2 0  9997
2 69558  97.2836 211.4375 0001650  40.0279 320.1111 15.80984719  2684
STARLINK-37958          
1 69559U 26135P   26183.51884463  .01014806  00000+0  45226-2 0  9990
2 69559  97.2853 211.4423 0002582 317.9830  42.1240 15.81708951  2689
STARLINK-37950          
1 69560U 26135Q   26182.82252148  .00546659  00000+0  26565-2 0  9994
2 69560  97.2846 210.7044 0001501  31.1885 328.9472 15.81006568  2574
STARLINK-37952          
1 69561U 26135R   26183.51744183  .00270964  00000+0  13667-2 0  9999
2 69561  97.2829 211.4426 0000754 100.1511 259.9842 15.80897924  2689
STARLINK-37935          
1 69562U 26135S   26183.51666975  .00299750  00000+0  15029-2 0  9990
2 69562  97.2833 211.4430 0001181  37.3627 322.7723 15.80955163  2681
STARLINK-37936          
1 69563U 26135T   26183.00002315  .00188174  00000+0  96563-3 0  9997
2 69563  97.2845 210.9162 0001558  80.6641 261.1958 15.80735324  3699
STARLINK-37932          
1 69564U 26135U   26183.63589501  .00256480  00000+0  12992-2 0  9993
2 69564  97.2839 211.5878 0000701 102.0026 258.1321 15.80842083  2701
STARLINK-37916          
1 69565U 26135V   26183.50874679  .00285210  00000+0  14326-2 0  9999
2 69565  97.2831 211.4545 0000904  45.6269 314.5074 15.80952914  2684
STARLINK-37909          
1 69566U 26135W   26183.50243600  .00314246  00000+0  15730-2 0  9996
2 69566  97.2818 211.4637 0001065  49.4634 310.6727 15.80953638  2685
STARLINK-37934          
1 69567U 26135X   26183.50563779  .00347966  00000+0  17389-2 0  9996
2 69567  97.2835 211.4597 0001295  76.3610 283.7803 15.80903163  2681
STARLINK-37938          
1 69568U 26135Y   26183.50319876  .00322164  00000+0  16108-2 0  9995
2 69568  97.2820 211.4627 0001871  41.8520 318.2891 15.80958469  2687
STARLINK-37924          
1 69569U 26135Z   26183.75363610  .00209048  00000+0  10613-2 0  9998
2 69569  97.2842 211.7341 0001049  73.2321 286.9062 15.80917016  2722
CZ-3B R/B               
1 69571U 26136B   26183.54842858  .00289351  28270-4  41392-3 0  9993
2 69571  63.4332 352.9933 7316421 171.4641 217.0691  2.30436015   384
GUOWANG OBJECT A        
1 69572U 26137A   26183.75387975 -.00000051  00000+0  76745-4 0  9998
2 69572  49.9989 193.4140 0012642 276.8894  83.0566 13.89813980  2189
GUOWANG OBJECT B        
1 69573U 26137B   26183.75095250 -.00000092  00000+0  43238-4 0  9997
2 69573  49.9995 193.3972 0011879 276.2410  83.7135 13.89805470  2193
GUOWANG OBJECT C        
1 69574U 26137C   26183.74990854 -.00000110  00000+0  29282-4 0  9995
2 69574  49.9958 193.3797 0011938 277.6651  82.2891 13.89816121  2194
