OBJECT_NAME,OBJECT_ID,EPOCH,MEAN_MOTION,ECCENTRICITY,INCLINATION,RA_OF_ASC_NODE,ARG_OF_PERICENTER,MEAN_ANOMALY,EPHEMERIS_TYPE,CLASSIFICATION_TYPE,NORAD_CAT_ID,ELEMENT_SET_NO,REV_AT_EPOCH,BSTAR,MEAN_MOTION_DOT,MEAN_MOTION_DDOT
2026-134H,2026-134H,2026-07-02T05:35:37.146912,15.09814378,.001486,97.7023,253.4114,223.7789,136.2262,0,U,69545,999,256,.35693E-3,.5719E-4,0
STARLINK-37880,2026-135A,2026-07-02T12:50:32.578656,15.80965642,.0001578,97.2838,211.4192,68.7100,291.4336,0,U,69546,999,268,.16282E-2,.325897E-2,0
STARLINK-37881,2026-135B,2026-07-02T12:49:43.304736,15.80898647,.0001865,97.2826,211.4193,90.8586,269.2896,0,U,69547,999,268,.13057E-2,.258491E-2,0
STARLINK-37265,2026-135C,2026-07-02T12:48:45.274176,15.80951560,.0001465,97.2827,211.4197,78.8461,281.2972,0,U,69548,999,268,.17926E-2,.359996E-2,0
STARLINK-37871,2026-135D,2026-07-02T12:47:24.624960,15.80899987,.000185,97.2828,211.4214,74.2982,285.8490,0,U,69549,999,268,.13952E-2,.276814E-2,0
STARLINK-37865,2026-135E,2026-07-02T12:45:19.719936,15.80979369,.0000824,97.2819,211.4228,73.1608,286.9751,0,U,69550,999,268,.19722E-2,.398376E-2,0
STARLINK-37862,2026-135F,2026-07-02T12:41:17.807712,15.80978480,.0001927,97.2830,211.4263,45.6993,314.4433,0,U,69551,999,268,.18602E-2,.374685E-2,0
STARLINK-37861,2026-135G,2026-07-02T00:29:19.072896,15.80839098,.0001282,97.2834,210.8947,122.8760,237.2632,0,U,69552,999,260,.19230137E-2,.385368E-2,0
STARLINK-37859,2026-135H,2026-07-02T17:10:15.953088,15.80868168,.0001576,97.2829,211.6328,82.1113,278.0334,0,U,69553,999,271,.12332E-2,.243356E-2,0
STARLINK-37860,2026-135J,2026-07-02T12:37:12.429120,15.80921425,.0001193,97.2829,211.4312,77.7213,282.4189,0,U,69554,999,268,.12727E-2,.252019E-2,0
STARLINK-37858,2026-135K,2026-07-02T16:00:01.998720,15.80856757,.0001324,97.2831,211.5866,98.8664,354.2049,0,U,69555,999,380,-.1775E-3,-.34072E-3,0
STARLINK-37927,2026-135L,2026-07-02T12:33:51.028992,15.80972690,.0001345,97.2834,211.4338,66.3582,293.7827,0,U,69556,999,268,.16906E-2,.339015E-2,0
STARLINK-37929,2026-135M,2026-07-02T12:32:38.655168,15.80978061,.0000973,97.2836,211.4350,23.0790,337.0522,0,U,69557,999,268,.17176E-2,.344741E-2,0
STARLINK-37954,2026-135N,2026-07-02T12:30:53.623872,15.80984719,.000165,97.2836,211.4375,40.0279,320.1111,0,U,69558,999,268,.21079E-2,.427322E-2,0
STARLINK-37958,2026-135P,2026-07-02T12:27:08.176032,15.81708951,.0002582,97.2853,211.4423,317.9830,42.1240,0,U,69559,999,268,.45226E-2,.1014806E-1,0
STARLINK-37950,2026-135Q,2026-07-01T19:44:25.855872,15.81006568,.0001501,97.2846,210.7044,31.1885,328.9472,0,U,69560,999,257,.26564893E-2,.546659E-2,0
STARLINK-37952,2026-135R,2026-07-02T12:25:06.974112,15.80897924,.0000754,97.2829,211.4426,100.1511,259.9842,0,U,69561,999,268,.13667E-2,.270964E-2,0
STARLINK-37935,2026-135S,2026-07-02T12:24:00.266400,15.80955163,.0001181,97.2833,211.4430,37.3627,322.7723,0,U,69562,999,268,.15029E-2,.29975E-2,0
STARLINK-37936,2026-135T,2026-07-02T00:00:02.000160,15.80735324,.00015583,97.2845,210.9162,80.6641,261.1958,0,U,69563,999,369,.9656317E-3,.188174E-2,0
STARLINK-37932,2026-135U,2026-07-02T15:15:41.328864,15.80842083,.0000701,97.2839,211.5878,102.0026,258.1321,0,U,69564,999,270,.12992E-2,.25648E-2,0
STARLINK-37916,2026-135V,2026-07-02T12:12:35.722656,15.80952914,.0000904,97.2831,211.4545,45.6269,314.5074,0,U,69565,999,268,.14326E-2,.28521E-2,0
STARLINK-37909,2026-135W,2026-07-02T12:03:30.470400,15.80953638,.0001065,97.2818,211.4637,49.4634,310.6727,0,U,69566,999,268,.1573E-2,.314246E-2,0
STARLINK-37934,2026-135X,2026-07-02T12:08:07.105056,15.80903163,.0001295,97.2835,211.4597,76.3610,283.7803,0,U,69567,999,268,.17389E-2,.347966E-2,0
STARLINK-37938,2026-135Y,2026-07-02T12:04:36.372864,15.80958469,.0001871,97.2820,211.4627,41.8520,318.2891,0,U,69568,999,268,.16108E-2,.322164E-2,0
STARLINK-37924,2026-135Z,2026-07-02T18:05:14.159040,15.80917016,.0001049,97.2842,211.7341,73.2321,286.9062,0,U,69569,999,272,.10613E-2,.209048E-2,0
CZ-3B R/B,2026-136B,2026-07-02T13:09:44.229312,2.30436015,.7316421,63.4332,352.9933,171.4641,217.0691,0,U,69571,999,38,.41392E-3,.289351E-2,.2827E-4
GUOWANG OBJECT A,2026-137A,2026-07-02T18:05:35.210400,13.89813980,.0012642,49.9989,193.4140,276.8894,83.0566,0,U,69572,999,218,.76745E-4,-.51E-6,0
GUOWANG OBJECT B,2026-137B,2026-07-02T18:01:22.296000,13.89805470,.0011879,49.9995,193.3972,276.2410,83.7135,0,U,69573,999,219,.43238E-4,-.92E-6,0
GUOWANG OBJECT C,2026-137C,2026-07-02T17:59:52.097856,13.89816121,.0011938,49.9958,193.3797,277.6651,82.2891,0,U,69574,999,219,.29282E-4,-.11E-5,0
